{"type": "FeatureCollection", "features": [ {"type": "Feature", "properties": {"norad_id": 51444, "name": "CSG-2", "group": "resource", "lat": 65.9966566344092, "lon": 3.960425883819476, "alt_km": 615.1941653912445, "timestamp": "2025-12-10T11:33:53.049222+00:00", "meta": {"OBJECT_NAME": "CSG-2", "OBJECT_ID": "2022-008A", "EPOCH": "2025-12-10T04:34:37.780320", "MEAN_MOTION": 14.8215742, "ECCENTRICITY": 0.0001487, "INCLINATION": 97.8804, "RA_OF_ASC_NODE": 165.5518, "ARG_OF_PERICENTER": 83.1503, "MEAN_ANOMALY": 276.9879, "EPHEMERIS_TYPE": 0, "CLASSIFICATION_TYPE": "U", "NORAD_CAT_ID": 51444, "ELEMENT_SET_NO": 999, "REV_AT_EPOCH": 20859, "BSTAR": 4.9715e-05, "MEAN_MOTION_DOT": 3.44e-06, "MEAN_MOTION_DDOT": 0}, "tle": {"line1": "1 51444U 22008A   25344.19071505  .00000344  00000+0  49715-4 0  9996", "line2": "2 51444  97.8804 165.5518 0001487  83.1503 276.9879 14.82157420208593"}}, "geometry": {"type": "Point", "coordinates": [3.960425883819476, 65.9966566344092]}}, {"type": "Feature", "properties": {"norad_id": 52912, "name": "GAOFEN-12 03", "group": "resource", "lat": 49.29090339253734, "lon": -137.3419501129028, "alt_km": 624.5688138354226, "timestamp": "2025-12-10T11:33:53.049232+00:00", "meta": {"OBJECT_NAME": "GAOFEN-12 03", "OBJECT_ID": "2022-069A", "EPOCH": "2025-12-10T04:50:51.931680", "MEAN_MOTION": 14.79600817, "ECCENTRICITY": 0.0002295, "INCLINATION": 97.848, "RA_OF_ASC_NODE": 231.6094, "ARG_OF_PERICENTER": 64.9188, "MEAN_ANOMALY": 295.2262, "EPHEMERIS_TYPE": 0, "CLASSIFICATION_TYPE": "U", "NORAD_CAT_ID": 52912, "ELEMENT_SET_NO": 999, "REV_AT_EPOCH": 18666, "BSTAR": 0.00028209, "MEAN_MOTION_DOT": 2.063e-05, "MEAN_MOTION_DDOT": 0}, "tle": {"line1": "1 52912U 22069A   25344.20198995  .00002063  00000+0  28209-3 0  9993", "line2": "2 52912  97.8480 231.6094 0002295  64.9188 295.2262 14.79600817186664"}}, "geometry": {"type": "Point", "coordinates": [-137.3419501129028, 49.29090339253734]}}, {"type": "Feature", "properties": {"norad_id": 54754, "name": "SWOT", "group": "resource", "lat": -49.095727631502434, "lon": -84.65991685348287, "alt_km": 900.1065160452754, "timestamp": "2025-12-10T11:33:53.049242+00:00", "meta": {"OBJECT_NAME": "SWOT", "OBJECT_ID": "2022-173A", "EPOCH": "2025-12-10T03:13:55.031808", "MEAN_MOTION": 14.0017407, "ECCENTRICITY": 3.32e-05, "INCLINATION": 77.6104, "RA_OF_ASC_NODE": 290.5063, "ARG_OF_PERICENTER": 120.6624, "MEAN_ANOMALY": 239.456, "EPHEMERIS_TYPE": 0, "CLASSIFICATION_TYPE": "U", "NORAD_CAT_ID": 54754, "ELEMENT_SET_NO": 999, "REV_AT_EPOCH": 15269, "BSTAR": 4.9577e-05, "MEAN_MOTION_DOT": 7.1e-07, "MEAN_MOTION_DDOT": 0}, "tle": {"line1": "1 54754U 22173A   25344.13466472  .00000071  00000+0  49577-4 0  9994", "line2": "2 54754  77.6104 290.5063 0000332 120.6624 239.4560 14.00174070152692"}}, "geometry": {"type": "Point", "coordinates": [-84.65991685348287, -49.095727631502434]}}, {"type": "Feature", "properties": {"norad_id": 57654, "name": "GAOFEN-12 04", "group": "resource", "lat": -38.5185725421263, "lon": 73.91820942805563, "alt_km": 637.5674746698569, "timestamp": "2025-12-10T11:33:53.049252+00:00", "meta": {"OBJECT_NAME": "GAOFEN-12 04", "OBJECT_ID": "2023-123A", "EPOCH": "2025-12-10T04:05:12.954912", "MEAN_MOTION": 14.79688062, "ECCENTRICITY": 0.0001374, "INCLINATION": 97.9117, "RA_OF_ASC_NODE": 259.9665, "ARG_OF_PERICENTER": 73.9143, "MEAN_ANOMALY": 286.222, "EPHEMERIS_TYPE": 0, "CLASSIFICATION_TYPE": "U", "NORAD_CAT_ID": 57654, "ELEMENT_SET_NO": 999, "REV_AT_EPOCH": 12467, "BSTAR": 0.00029199, "MEAN_MOTION_DOT": 2.141e-05, "MEAN_MOTION_DDOT": 0}, "tle": {"line1": "1 57654U 23123A   25344.17028883  .00002141  00000+0  29199-3 0  9993", "line2": "2 57654  97.9117 259.9665 0001374  73.9143 286.2220 14.79688062124670"}}, "geometry": {"type": "Point", "coordinates": [73.91820942805563, -38.5185725421263]}}, {"type": "Feature", "properties": {"norad_id": 59065, "name": "PARS 1", "group": "resource", "lat": 60.46269489587765, "lon": 148.74490602407562, "alt_km": 430.9991863066134, "timestamp": "2025-12-10T11:33:53.049261+00:00", "meta": {"OBJECT_NAME": "PARS 1", "OBJECT_ID": "2024-039Q", "EPOCH": "2025-12-10T04:49:06.891744", "MEAN_MOTION": 15.40882325, "ECCENTRICITY": 0.0012658, "INCLINATION": 97.4638, "RA_OF_ASC_NODE": 315.08, "ARG_OF_PERICENTER": 79.8954, "MEAN_ANOMALY": 280.3719, "EPHEMERIS_TYPE": 0, "CLASSIFICATION_TYPE": "U", "NORAD_CAT_ID": 59065, "ELEMENT_SET_NO": 999, "REV_AT_EPOCH": 9949, "BSTAR": 0.00038742, "MEAN_MOTION_DOT": 0.00015883, "MEAN_MOTION_DDOT": 0}, "tle": {"line1": "1 59065U 24039Q   25344.20077421  .00015883  00000+0  38742-3 0  9995", "line2": "2 59065  97.4638 315.0800 0012658  79.8954 280.3719 15.40882325 99494"}}, "geometry": {"type": "Point", "coordinates": [148.74490602407562, 60.46269489587765]}}, {"type": "Feature", "properties": {"norad_id": 59371, "name": "RESURS-P 4", "group": "resource", "lat": -27.33045223850147, "lon": -65.36727433856488, "alt_km": 475.33624639277787, "timestamp": "2025-12-10T11:33:53.049271+00:00", "meta": {"OBJECT_NAME": "RESURS-P 4", "OBJECT_ID": "2024-061A", "EPOCH": "2025-12-10T03:50:49.578720", "MEAN_MOTION": 15.32052402, "ECCENTRICITY": 0.0001711, "INCLINATION": 97.2543, "RA_OF_ASC_NODE": 290.5431, "ARG_OF_PERICENTER": 53.2675, "MEAN_ANOMALY": 306.8724, "EPHEMERIS_TYPE": 0, "CLASSIFICATION_TYPE": "U", "NORAD_CAT_ID": 59371, "ELEMENT_SET_NO": 999, "REV_AT_EPOCH": 9481, "BSTAR": 0.00018229, "MEAN_MOTION_DOT": 5.565e-05, "MEAN_MOTION_DDOT": 0}, "tle": {"line1": "1 59371U 24061A   25344.16029605  .00005565  00000+0  18229-3 0  9990", "line2": "2 59371  97.2543 290.5431 0001711  53.2675 306.8724 15.32052402 94815"}}, "geometry": {"type": "Point", "coordinates": [-65.36727433856488, -27.33045223850147]}}, {"type": "Feature", "properties": {"norad_id": 59625, "name": "LEGION 1", "group": "resource", "lat": -35.53505455262245, "lon": 64.55375194961029, "alt_km": 520.0795657735353, "timestamp": "2025-12-10T11:33:53.049281+00:00", "meta": {"OBJECT_NAME": "LEGION 1", "OBJECT_ID": "2024-081A", "EPOCH": "2025-12-10T03:48:15.412608", "MEAN_MOTION": 15.1643818, "ECCENTRICITY": 0.0004177, "INCLINATION": 97.521, "RA_OF_ASC_NODE": 58.8187, "ARG_OF_PERICENTER": 328.7582, "MEAN_ANOMALY": 31.3402, "EPHEMERIS_TYPE": 0, "CLASSIFICATION_TYPE": "U", "NORAD_CAT_ID": 59625, "ELEMENT_SET_NO": 999, "REV_AT_EPOCH": 8888, "BSTAR": 0.00038882, "MEAN_MOTION_DOT": 7.497e-05, "MEAN_MOTION_DDOT": 0}, "tle": {"line1": "1 59625U 24081A   25344.15851172  .00007497  00000+0  38882-3 0  9998", "line2": "2 59625  97.5210  58.8187 0004177 328.7582  31.3402 15.16438180 88886"}}, "geometry": {"type": "Point", "coordinates": [64.55375194961029, -35.53505455262245]}}, {"type": "Feature", "properties": {"norad_id": 59626, "name": "LEGION 2", "group": "resource", "lat": 35.68087057109774, "lon": -115.32959801895856, "alt_km": 517.9500634688602, "timestamp": "2025-12-10T11:33:53.049291+00:00", "meta": {"OBJECT_NAME": "LEGION 2", "OBJECT_ID": "2024-081B", "EPOCH": "2025-12-10T04:35:50.906688", "MEAN_MOTION": 15.16450576, "ECCENTRICITY": 0.0005794, "INCLINATION": 97.5213, "RA_OF_ASC_NODE": 58.9386, "ARG_OF_PERICENTER": 304.6638, "MEAN_ANOMALY": 55.4048, "EPHEMERIS_TYPE": 0, "CLASSIFICATION_TYPE": "U", "NORAD_CAT_ID": 59626, "ELEMENT_SET_NO": 999, "REV_AT_EPOCH": 8889, "BSTAR": 0.00034996, "MEAN_MOTION_DOT": 6.744e-05, "MEAN_MOTION_DDOT": 0}, "tle": {"line1": "1 59626U 24081B   25344.19156142  .00006744  00000+0  34996-3 0  9994", "line2": "2 59626  97.5213  58.9386 0005794 304.6638  55.4048 15.16450576 88890"}}, "geometry": {"type": "Point", "coordinates": [-115.32959801895856, 35.68087057109774]}}, {"type": "Feature", "properties": {"norad_id": 60182, "name": "ALOS-4 (DAICHI-4)", "group": "resource", "lat": 76.19920158978073, "lon": -66.10374757621808, "alt_km": 622.7654403233664, "timestamp": "2025-12-10T11:33:53.049302+00:00", "meta": {"OBJECT_NAME": "ALOS-4 (DAICHI-4)", "OBJECT_ID": "2024-123A", "EPOCH": "2025-12-10T04:36:56.937024", "MEAN_MOTION": 14.7947331, "ECCENTRICITY": 0.0001445, "INCLINATION": 97.9225, "RA_OF_ASC_NODE": 79.0757, "ARG_OF_PERICENTER": 101.5606, "MEAN_ANOMALY": 258.5768, "EPHEMERIS_TYPE": 0, "CLASSIFICATION_TYPE": "U", "NORAD_CAT_ID": 60182, "ELEMENT_SET_NO": 999, "REV_AT_EPOCH": 7793, "BSTAR": 0.00035532, "MEAN_MOTION_DOT": 2.603e-05, "MEAN_MOTION_DDOT": 0}, "tle": {"line1": "1 60182U 24123A   25344.19232566  .00002603  00000+0  35532-3 0  9992", "line2": "2 60182  97.9225  79.0757 0001445 101.5606 258.5768 14.79473310 77937"}}, "geometry": {"type": "Point", "coordinates": [-66.10374757621808, 76.19920158978073]}}, {"type": "Feature", "properties": {"norad_id": 60452, "name": "LEGION 3", "group": "resource", "lat": 1.701178758511955, "lon": 140.53290816806935, "alt_km": 508.6158269388652, "timestamp": "2025-12-10T11:33:53.049313+00:00", "meta": {"OBJECT_NAME": "LEGION 3", "OBJECT_ID": "2024-146A", "EPOCH": "2025-12-10T02:52:34.440384", "MEAN_MOTION": 15.15717226, "ECCENTRICITY": 0.0014603, "INCLINATION": 45.0024, "RA_OF_ASC_NODE": 324.1774, "ARG_OF_PERICENTER": 184.5309, "MEAN_ANOMALY": 175.5439, "EPHEMERIS_TYPE": 0, "CLASSIFICATION_TYPE": "U", "NORAD_CAT_ID": 60452, "ELEMENT_SET_NO": 999, "REV_AT_EPOCH": 7333, "BSTAR": 0.00039557, "MEAN_MOTION_DOT": 7.426e-05, "MEAN_MOTION_DDOT": 0}, "tle": {"line1": "1 60452U 24146A   25344.11984306  .00007426  00000+0  39557-3 0  9994", "line2": "2 60452  45.0024 324.1774 0014603 184.5309 175.5439 15.15717226 73333"}}, "geometry": {"type": "Point", "coordinates": [140.53290816806935, 1.701178758511955]}}]}